#aV2010  2 23  0  0   .00000000      96 DD+AD WGS84 FIT  NGA
## 1572 172800.00000000   900.00000000 55250  .0000000000000
+   32     1  2  3  4  5  6  7  8  9 10 11 12 13 14 15 16 17
+         18 19 20 21 22 23 24 25 26 27 28 29 30 31 32  0  0
+          0  0  0  0  0  0  0  0  0  0  0  0  0  0  0  0  0
+          0  0  0  0  0  0  0  0  0  0  0  0  0  0  0  0  0
+          0  0  0  0  0  0  0  0  0  0  0  0  0  0  0  0  0
++         0  0  0  0  0  0  0  0  0  0  0  0  0  0  0  0  0
++         0  0  0  0  0  0  0  0  0  0  0  0  0  0  0  0  0
++         0  0  0  0  0  0  0  0  0  0  0  0  0  0  0  0  0
++         0  0  0  0  0  0  0  0  0  0  0  0  0  0  0  0  0
++         0  0  0  0  0  0  0  0  0  0  0  0  0  0  0  0  0
%c cc cc ccc ccc cccc cccc cccc cccc ccccc ccccc ccccc ccccc
%c cc cc ccc ccc cccc cccc cccc cccc ccccc ccccc ccccc ccccc
%f  0.0000000  0.000000000  0.00000000000  0.000000000000000
%f  0.0000000  0.000000000  0.00000000000  0.000000000000000
%i    0    0    0    0      0      0      0      0         0
%i    0    0    0    0      0      0      0      0         0
/*      NGA, ST. LOUIS,MO.                                  
/*   EPHEMERIS COMPUTED FROM  3 DAYS OF DATA                
/* CCCCCCCCCCCCCCCCCCCCCCCCCCCCCCCCCCCCCCCCCCCCCCCCCCCCCCCCC
/* CCCCCCCCCCCCCCCCCCCCCCCCCCCCCCCCCCCCCCCCCCCCCCCCCCCCCCCCC
*  2010  2 23 23 15   .00000000                                                 
P  1  17228.691625 -19738.143068   3864.002330    -92.048703                    
V  1   -626.045767   5746.177174  31392.067494      -.039353                    
P  2  14174.480486  22316.019131  -4459.735249    229.871104                    
V  2   -349.387545   6299.590836  30328.369478       .040091                    
P  3 -18986.958303 -11156.178688 -15441.536911    519.880118                    
V  3  18886.754860  -2785.775998 -21365.477138       .050696                    
P  4   4303.169680  24551.756849   8459.184046     22.163998                    
V  4  -7807.167983  -8666.761376  28919.286939       .089574                    
P  5   9544.091533  12498.888569 -21414.528465     -6.519872                    
V  5 -16160.037352  21835.745558   5632.392216       .020798                    
P  6 -15344.656899 -13297.256497 -17003.391623    699.424350                    
V  6  22053.185126  -1127.180106 -18698.678573      -.059264                    
P  7 -11029.473379  11171.971523 -21408.630525      2.457096                    
V  7 -11751.989365 -24495.806129  -6882.196313      -.005284                    
P  8  -2998.315993  21039.360626 -15602.680361      3.580702                    
V  8  -8525.653331 -18090.623155 -23285.615479       .004071                    
P  9  17423.087862   9709.865961  16896.599053    107.847748                    
V  9   8603.391225  21062.180142 -20156.666306       .022380                    
P 10   3707.153582  17891.229864 -19332.158361    -36.260951                    
V 10 -15801.526029  18528.518604  14596.548607      -.009019                    
P 11 -19908.087890  -2892.050405  17246.377707    -47.059893                    
V 11 -11706.987786 -19458.666225 -16166.225995      -.021502                    
P 12  18763.249519  -4534.730878  18237.422634   -146.361245                    
V 12 -12378.926959  19523.846756  17783.865365       .047225                    
P 13 -21306.589118   6217.307926 -14729.160373    306.348890                    
V 13 -17957.812971  -4241.352539  24390.837616      -.001354                    
P 14   4072.832086 -14222.224214  22189.592874     15.142687                    
V 14  27468.360890   4113.116382  -2537.094271       .042192                    
P 15  24405.242389   7382.165022  -7624.007916   -304.007699                    
V 15  -9875.727809   1945.714160 -29535.280905       .032790                    
P 16  -3523.073682 -17505.260809 -19524.806704    -44.604926                    
V 16  16041.443276 -19157.853325  14503.162642      -.040036                    
P 17  -2826.991264  15021.015922  21804.948950    132.170749                    
V 17 -27265.543798  -3443.449448  -1373.993016       .029384                    
P 18  17611.981037 -19264.485629  -3408.841419     50.971113                    
V 18    240.997273   6061.579019 -31085.339163       .025883                    
P 19 -24638.308886  -8489.959801  -5849.478139    -17.535412                    
V 19   7746.802910  -1244.131359 -30345.990582      -.023646                    
P 20 -19547.957021   8546.592023  15647.045144     60.714051                    
V 20   9192.814779 -18164.085345  21275.883246      -.007242                    
P 21   8825.555437 -15417.630678 -19247.493095    -42.597200                    
V 21  11939.199301  22496.272459 -12975.238550      -.025256                    
P 22  10215.010185 -23181.839029   8002.269216    178.368282                    
V 22   8745.211047  -5926.106390 -28980.746941      -.008498                    
P 23 -26268.367207    637.843352  -4903.473226    379.104027                    
V 23  -5866.926629  -2865.694754  30932.445932      -.010073                    
P 24  12716.160369  -9352.331850 -21313.807585    265.043151                    
V 24  10356.965690  25213.056122  -4617.267325       .033600                    
P 25  18424.759124  -7034.513762  17419.431997     41.612464                    
V 25  -9634.716474  20802.504817  18339.093530       .769140                    
P 26  18136.025561  -8439.647204  17147.985208    -21.552795                    
V 26  22158.364615   4639.543832 -20085.327333      -.038034                    
P 27  18330.739457  11129.454085  16439.015691    128.729056                    
V 27   7906.383767  17885.857131 -21743.704136       .032581                    
P 28 -11999.836739  22777.593728   6311.915426    -21.596607                    
V 28  -6623.602583   4330.284896 -30780.682502       .006140                    
P 29  23082.826950  -5412.843882 -11845.868325    100.342219                    
V 29  14772.065688   4313.494919  26640.546888       .028908                    
P 30  18798.042595 -15194.153453  10558.985385    219.034537                    
V 30  -5320.978800  13256.274076  27596.240999       .034762                    
P 31  -6085.369071 -24857.110973   6984.713727    -50.195433                    
V 31   5671.498006   6881.472649  30532.409421       .016094                    
P 32 -16804.854005  -2596.945125  20675.865570     88.363733                    
V 32  15780.763633 -20119.541084  10799.692379      -.084661                    
EOF
